{
  "type": "FeatureCollection",
  "features": [
    {
      "type": "Feature",
      "properties": { "name": "La Guajira" },
      "geometry": { "type": "Polygon", "coordinates": [[[-73.4,10.8],[-73.1,12.5],[-71.8,12.3],[-71.2,11.5],[-71.2,10.5],[-72.2,10.4],[-73.0,10.7],[-73.4,10.8]]] }
    },
    {
      "type": "Feature",
      "properties": { "name": "Cesar" },
      "geometry": { "type": "Polygon", "coordinates": [[[-74.5,9.2],[-73.5,11.0],[-73.0,10.7],[-72.2,10.4],[-71.2,10.5],[-71.2,9.0],[-72.0,8.4],[-73.0,8.3],[-74.0,8.8],[-74.5,9.2]]] }
    },
    {
      "type": "Feature",
      "properties": { "name": "Magdalena" },
      "geometry": { "type": "Polygon", "coordinates": [[[-75.1,10.5],[-74.7,11.2],[-74.2,11.3],[-73.5,11.0],[-74.5,9.2],[-74.0,8.8],[-73.5,8.8],[-74.0,9.0],[-75.1,10.5]]] }
    },
    {
      "type": "Feature",
      "properties": { "name": "Atlántico" },
      "geometry": { "type": "Polygon", "coordinates": [[[-75.1,10.5],[-74.7,11.2],[-74.4,11.0],[-74.2,10.5],[-74.3,10.0],[-74.8,10.0],[-75.1,10.5]]] }
    },
    {
      "type": "Feature",
      "properties": { "name": "Bolívar" },
      "geometry": { "type": "Polygon", "coordinates": [[[-76.5,10.0],[-75.1,10.4],[-74.3,10.0],[-73.5,8.8],[-74.0,7.9],[-74.8,7.8],[-75.4,8.3],[-76.3,9.0],[-76.5,10.0]]] }
    },
    {
      "type": "Feature",
      "properties": { "name": "Sucre" },
      "geometry": { "type": "Polygon", "coordinates": [[[-76.3,9.0],[-75.4,8.3],[-74.8,7.8],[-75.2,8.0],[-75.7,9.4],[-76.1,9.4],[-76.3,9.0]]] }
    },
    {
      "type": "Feature",
      "properties": { "name": "Córdoba" },
      "geometry": { "type": "Polygon", "coordinates": [[[-77.2,8.8],[-76.8,9.4],[-76.1,9.4],[-75.7,9.4],[-75.2,8.0],[-75.4,7.4],[-76.0,7.3],[-76.7,7.8],[-77.2,8.8]]] }
    },
    {
      "type": "Feature",
      "properties": { "name": "Antioquia" },
      "geometry": { "type": "Polygon", "coordinates": [[[-77.2,8.8],[-76.8,9.4],[-76.3,9.0],[-75.4,8.3],[-74.8,7.8],[-74.0,7.9],[-73.6,7.1],[-74.3,6.2],[-74.8,5.7],[-75.3,5.8],[-76.1,6.1],[-77.1,6.8],[-77.2,8.8]]] }
    },
    {
      "type": "Feature",
      "properties": { "name": "Chocó" },
      "geometry": { "type": "Polygon", "coordinates": [[[-77.2,8.8],[-77.1,6.8],[-76.1,6.1],[-75.3,5.8],[-76.1,5.1],[-76.6,4.7],[-77.2,4.8],[-77.5,5.5],[-78.1,6.5],[-78.4,7.9],[-77.7,8.5],[-77.2,8.8]]] }
    },
    {
      "type": "Feature",
      "properties": { "name": "Norte de Santander" },
      "geometry": { "type": "Polygon", "coordinates": [[[-74.0,7.9],[-73.5,8.8],[-73.1,9.1],[-72.3,8.9],[-72.0,8.3],[-72.0,7.3],[-72.6,7.0],[-73.6,7.1],[-74.0,7.9]]] }
    },
    {
      "type": "Feature",
      "properties": { "name": "Santander" },
      "geometry": { "type": "Polygon", "coordinates": [[[-75.0,6.4],[-74.8,7.8],[-74.0,7.9],[-73.6,7.1],[-72.6,7.0],[-72.5,5.5],[-73.4,5.4],[-74.5,5.7],[-75.0,6.4]]] }
    },
    {
      "type": "Feature",
      "properties": { "name": "Arauca" },
      "geometry": { "type": "Polygon", "coordinates": [[[-72.6,7.0],[-71.9,7.1],[-70.0,7.1],[-69.9,6.0],[-70.8,5.8],[-72.3,5.5],[-72.6,5.5],[-72.6,7.0]]] }
    },
    {
      "type": "Feature",
      "properties": { "name": "Boyacá" },
      "geometry": { "type": "Polygon", "coordinates": [[[-74.8,7.2],[-74.7,7.8],[-74.0,7.9],[-73.6,7.1],[-72.6,7.0],[-72.5,5.5],[-72.3,5.5],[-72.0,5.0],[-72.0,4.8],[-73.0,4.7],[-74.0,4.7],[-74.6,5.0],[-74.8,5.8],[-74.8,7.2]]] }
    },
    {
      "type": "Feature",
      "properties": { "name": "Cundinamarca" },
      "geometry": { "type": "Polygon", "coordinates": [[[-75.0,5.5],[-74.8,5.8],[-74.6,5.0],[-74.0,4.7],[-73.0,4.7],[-73.3,3.7],[-74.1,3.7],[-74.6,4.0],[-75.0,4.5],[-75.0,5.5]]] }
    },
    {
      "type": "Feature",
      "properties": { "name": "Bogotá" },
      "geometry": { "type": "Polygon", "coordinates": [[[-74.2,4.9],[-74.0,5.0],[-73.9,4.8],[-74.0,4.5],[-74.2,4.5],[-74.2,4.9]]] }
    },
    {
      "type": "Feature",
      "properties": { "name": "Casanare" },
      "geometry": { "type": "Polygon", "coordinates": [[[-73.5,6.4],[-72.6,6.3],[-70.8,5.8],[-70.5,4.5],[-72.0,4.5],[-73.0,4.7],[-73.5,5.4],[-73.5,6.4]]] }
    },
    {
      "type": "Feature",
      "properties": { "name": "Caldas" },
      "geometry": { "type": "Polygon", "coordinates": [[[-76.0,5.8],[-75.3,5.8],[-75.0,5.8],[-74.8,5.7],[-74.8,5.2],[-75.2,4.8],[-75.5,4.8],[-76.0,5.2],[-76.0,5.8]]] }
    },
    {
      "type": "Feature",
      "properties": { "name": "Risaralda" },
      "geometry": { "type": "Polygon", "coordinates": [[[-76.4,5.3],[-76.0,5.2],[-75.5,4.8],[-75.2,4.8],[-75.4,4.3],[-75.9,4.4],[-76.3,4.8],[-76.4,5.3]]] }
    },
    {
      "type": "Feature",
      "properties": { "name": "Quindío" },
      "geometry": { "type": "Polygon", "coordinates": [[[-76.1,4.8],[-75.9,4.4],[-75.4,4.3],[-75.2,4.0],[-75.6,3.9],[-76.0,4.2],[-76.1,4.8]]] }
    },
    {
      "type": "Feature",
      "properties": { "name": "Valle del Cauca" },
      "geometry": { "type": "Polygon", "coordinates": [[[-77.4,5.5],[-76.4,5.3],[-76.3,4.8],[-76.0,4.2],[-75.6,3.9],[-76.0,3.2],[-76.9,3.4],[-77.5,4.3],[-77.4,5.5]]] }
    },
    {
      "type": "Feature",
      "properties": { "name": "Tolima" },
      "geometry": { "type": "Polygon", "coordinates": [[[-76.0,5.8],[-75.3,5.8],[-75.0,5.8],[-74.8,5.7],[-74.7,5.0],[-74.5,3.8],[-74.7,2.8],[-75.3,3.0],[-76.0,3.2],[-75.6,3.9],[-76.0,4.2],[-76.1,4.8],[-76.3,4.8],[-76.0,5.2],[-76.0,5.8]]] }
    },
    {
      "type": "Feature",
      "properties": { "name": "Meta" },
      "geometry": { "type": "Polygon", "coordinates": [[[-74.8,4.7],[-73.5,5.4],[-73.0,4.7],[-72.0,4.5],[-70.5,4.5],[-70.5,2.0],[-71.0,1.5],[-74.0,1.5],[-74.8,2.0],[-75.2,3.0],[-74.8,4.7]]] }
    },
    {
      "type": "Feature",
      "properties": { "name": "Huila" },
      "geometry": { "type": "Polygon", "coordinates": [[[-76.5,3.8],[-76.0,3.2],[-75.3,3.0],[-74.7,2.8],[-74.5,3.8],[-74.4,1.5],[-75.0,1.3],[-75.5,2.0],[-76.2,2.8],[-76.5,3.8]]] }
    },
    {
      "type": "Feature",
      "properties": { "name": "Cauca" },
      "geometry": { "type": "Polygon", "coordinates": [[[-77.8,3.5],[-77.2,3.8],[-76.5,3.8],[-76.2,2.8],[-75.5,2.0],[-76.0,1.5],[-76.5,1.0],[-77.3,1.5],[-77.8,2.5],[-77.8,3.5]]] }
    },
    {
      "type": "Feature",
      "properties": { "name": "Nariño" },
      "geometry": { "type": "Polygon", "coordinates": [[[-78.7,2.0],[-77.8,2.5],[-77.3,1.5],[-76.5,1.0],[-76.5,0.3],[-77.0,-0.3],[-77.5,-0.3],[-78.4,0.5],[-78.7,1.2],[-78.7,2.0]]] }
    },
    {
      "type": "Feature",
      "properties": { "name": "Putumayo" },
      "geometry": { "type": "Polygon", "coordinates": [[[-77.5,1.4],[-76.5,1.0],[-76.5,0.3],[-77.0,-0.3],[-75.5,-0.5],[-74.8,0.0],[-74.9,1.0],[-75.5,1.4],[-77.5,1.4]]] }
    },
    {
      "type": "Feature",
      "properties": { "name": "Caquetá" },
      "geometry": { "type": "Polygon", "coordinates": [[[-76.5,2.8],[-76.0,3.2],[-75.2,3.0],[-74.7,2.8],[-74.4,1.5],[-74.8,0.0],[-73.5,0.3],[-73.0,1.0],[-73.0,2.0],[-74.8,2.0],[-76.0,3.2],[-76.5,2.8]]] }
    },
    {
      "type": "Feature",
      "properties": { "name": "Guaviare" },
      "geometry": { "type": "Polygon", "coordinates": [[[-74.8,3.5],[-73.5,3.5],[-73.0,2.0],[-73.0,0.5],[-73.5,0.3],[-74.8,0.0],[-75.2,1.5],[-74.0,1.5],[-74.8,2.0],[-74.8,3.5]]] }
    },
    {
      "type": "Feature",
      "properties": { "name": "Vaupés" },
      "geometry": { "type": "Polygon", "coordinates": [[[-73.2,2.5],[-73.0,2.0],[-73.0,0.5],[-71.0,0.0],[-69.5,0.0],[-69.5,1.5],[-70.0,2.5],[-71.0,2.5],[-73.2,2.5]]] }
    },
    {
      "type": "Feature",
      "properties": { "name": "Amazonas" },
      "geometry": { "type": "Polygon", "coordinates": [[[-73.2,0.5],[-73.0,0.5],[-71.0,0.0],[-69.5,0.0],[-69.9,-4.2],[-73.8,-4.2],[-74.5,-1.0],[-73.5,0.3],[-73.2,0.5]]] }
    },
    {
      "type": "Feature",
      "properties": { "name": "Guainía" },
      "geometry": { "type": "Polygon", "coordinates": [[[-70.5,4.0],[-70.0,3.5],[-69.5,1.5],[-69.5,0.0],[-67.5,2.0],[-67.0,3.0],[-67.5,4.0],[-70.5,4.0]]] }
    },
    {
      "type": "Feature",
      "properties": { "name": "Vichada" },
      "geometry": { "type": "Polygon", "coordinates": [[[-72.5,7.0],[-71.9,7.1],[-70.0,7.1],[-69.9,6.0],[-69.5,5.0],[-69.5,3.5],[-70.0,3.5],[-70.0,2.5],[-71.0,2.5],[-72.0,3.5],[-70.5,4.0],[-70.5,4.5],[-72.0,4.5],[-72.5,7.0]]] }
    },
    {
      "type": "Feature",
      "properties": { "name": "San Andrés" },
      "geometry": { "type": "Polygon", "coordinates": [[[-81.8,12.5],[-81.6,12.6],[-81.5,12.5],[-81.6,12.4],[-81.8,12.5]]] }
    }
  ]
}
